EYESAT A (AO-27)        
1 22825U 93061C   26158.14059956  .00000125  00000+0  64541-4 0  9990
2 22825  98.6881 225.5574 0009348 125.8685 234.3367 14.30939726705565
ITAMSAT (IO-26)         
1 22826U 93061D   26157.63368579  .00000104  00000+0  56152-4 0  9994
2 22826  98.6828 224.9671 0010034 112.4178 247.8069 14.31365981705803
RADIO ROSTO (RS15)      
1 23439U 94085A   26158.18280375 -.00000032  00000+0  31161-3 0  9993
2 23439  64.8186 319.3964 0155640   5.7239 354.5419 11.27583633294777
JAS-2 (FO-29)           
1 24278U 96046B   26158.32988280 -.00000018  00000+0  14338-4 0  9992
2 24278  98.5249   8.5522 0350731 121.9451 241.6299 13.53273665471833
FORTE                   
1 24920U 97047A   26158.35796897  .00000184  00000+0  97362-4 0  9993
2 24920  69.9542  36.2232 0024488 289.2764  70.5710 14.27941549497282
TECHSAT 1B (GO-32)      
1 25397U 98043D   26157.59817634  .00000069  00000+0  49896-4 0  9998
2 25397  99.0065 150.0898 0000464 193.9791 166.1374 14.24426350449827
ISS (ZARYA)             
1 25544U 98067A   26158.32089647  .00008946  00000+0  16649-3 0  9996
2 25544  51.6340 348.9335 0006961 143.5924 216.5539 15.49651405570223
IMAGE                   
1 26113U 00017A   26152.26636047 -.00000099  00000+0 -18882-1 0  9998
2 26113  94.2162 315.1599 7443736 289.6105   8.6041  1.68666062161230
CLUSTER II-FM7 (SAMBA)  
1 26410U 00041A   26159.21452506  .00004289  00000+0  00000+0 0  9997
2 26410 149.9021  49.0985 9044304 266.1693 359.9197  0.44821039 20278
CLUSTER II-FM8 (TANGO)  
1 26464U 00045B   26157.18212104  .00004544  00000+0  00000+0 0  9996
2 26464 150.1407  49.6985 9046201 266.6195   3.2041  0.44406384 20263
ODIN                    
1 26702U 01007A   26158.36867641  .00156566  00000+0  11487-2 0  9999
2 26702  97.3853 198.7034 0006399 156.6271 203.5285 15.72644851387850
OMNI-M1                 
1 26857U 01026A   26158.03638869 -.00000011  00000+0  00000+0 0  9993
2 26857  44.8338 247.6044 0014500  52.1985 307.9833  3.92401508205177
PCSAT (NO-44)           
1 26931U 01043C   26158.03172196  .00000144  00000+0  84457-4 0  9990
2 26931  67.0513 270.5377 0006114 264.2212  95.8193 14.31952522288992
PROBA-1                 
1 26958U 01049B   26158.51189780  .00002689  00000+0  17589-3 0  9992
2 26958  97.9598 166.7072 0055424 154.1725 206.2288 15.07452383342165
SAUDISAT 1C (SO-50)     
1 27607U 02058C   26158.24267670  .00001225  00000+0  16136-3 0  9992
2 27607  64.5504 159.7532 0075455 264.2954  94.9545 14.83025886262986
CORIOLIS                
1 27640U 03001A   26158.26160080  .00000120  00000+0  77032-4 0  9993
2 27640  98.7127 165.2980 0012928 239.2827 120.7076 14.19942145212818
CUTE-1 (CO-55)          
1 27844U 03031E   26157.49994927  .00000321  00000+0  15775-3 0  9999
2 27844  98.6735 166.1932 0008851 210.1158 149.9513 14.24329258190151
CUBESAT XI-IV (CO-57)   
1 27848U 03031J   26157.55333329  .00000268  00000+0  13659-3 0  9992
2 27848  98.6767 165.9671 0008459 230.3427 129.7005 14.23615194189868
MOZHAETS 4 (RS22)       
1 27939U 03042A   26158.56300939  .00001355  00000+0  21690-3 0  9990
2 27939  98.3472 342.6498 0010215 303.9342  84.6334 14.73451912214130
